[{"OBJECT_NAME":"GHOST-1","OBJECT_ID":"2023-054T","EPOCH":"2026-03-09T17:24:48.864384","MEAN_MOTION":15.83170252,"ECCENTRICITY":0.00050061,"INCLINATION":97.3006,"RA_OF_ASC_NODE":345.7036,"ARG_OF_PERICENTER":67.0206,"MEAN_ANOMALY":293.1591,"EPHEMERIS_TYPE":0,"CLASSIFICATION_TYPE":"U","NORAD_CAT_ID":56195,"ELEMENT_SET_NO":999,"REV_AT_EPOCH":16365,"BSTAR":0.0007406482,"MEAN_MOTION_DOT":0.00161066,"MEAN_MOTION_DDOT":0},{"OBJECT_NAME":"STARLINK-36371","OBJECT_ID":"2026-037G","EPOCH":"2026-03-09T22:00:01.999584","MEAN_MOTION":15.82007057,"ECCENTRICITY":0.0001629,"INCLINATION":42.9987,"RA_OF_ASC_NODE":197.123,"ARG_OF_PERICENTER":263.4735,"MEAN_ANOMALY":248.1455,"EPHEMERIS_TYPE":0,"CLASSIFICATION_TYPE":"U","NORAD_CAT_ID":67938,"ELEMENT_SET_NO":999,"REV_AT_EPOCH":323,"BSTAR":0.00017633584,"MEAN_MOTION_DOT":0.00036739,"MEAN_MOTION_DDOT":0}]
